HORYU-4                 
1 41340U 16012D   20158.39716636  .00000419  00000-0  25017-4 0  9992
2 41340  31.0062  42.1954 0013726  38.7174 321.4444 15.01498586236213
E-ST@R-II               
1 41459U 16025D   20158.50184099  .00001606  00000-0  84907-4 0  9994
2 41459  98.1033 267.9202 0163949 248.2657 110.1037 15.06392658225796
AAUSAT 4                
1 41460U 16025E   20158.32417548  .00001842  00000-0  93879-4 0  9994
2 41460  98.0989 270.0221 0152961 237.8881 120.7427 15.08673614225963
BEESAT-4                
1 41619U 16040W   20158.26348988  .00001243  00000-0  54165-4 0  9991
2 41619  97.3199 218.0622 0010110 211.1100 148.9540 15.23989261207692
CANX-7                  
1 41788U 16059F   20158.53863579  .00005440  00000-0  75324-3 0  9998
2 41788  98.2543 246.0979 0022064 337.7516  22.2762 14.78286403198208
RAVAN                   
1 41849U 16067B   20158.32491995  .00001112  00000-0  98018-4 0  9999
2 41849  97.9334 267.9869 0006049 282.5983  77.4562 14.98558179194952
CELTEE 1                
1 41850U 16067C   20158.24303719  .00000674  00000-0  63543-4 0  9995
2 41850  97.9263 265.6651 0007093 287.6341  72.4105 14.97178621194826
OPTICUBE 04             
1 41851U 16067D   20158.37197849  .00000461  00000-0  45464-4 0  9991
2 41851  97.9251 265.4213 0007348 289.6650  70.3778 14.96920378194820
AEROCUBE 8D             
1 41852U 16067E   20158.45480678  .00000613  00000-0  58669-4 0  9996
2 41852  97.9266 265.3405 0007914 291.1144  68.9231 14.96910307194811
AEROCUBE 8C             
1 41853U 16067F   20158.55294790 -.00000045  00000-0  13517-5 0  9990
2 41853  97.9252 265.3458 0008822 290.6807  69.3468 14.96868488194824
PROMETHEUS 2-1          
1 41854U 16067G   20158.52488076  .00000626  00000-0  59420-4 0  9996
2 41854  97.9275 265.6389 0008523 291.1619  68.8691 14.97194132194833
PROMETHEUS 2-3          
1 41855U 16067H   20158.52538494  .00000570  00000-0  54518-4 0  9998
2 41855  97.9278 265.6716 0008711 291.5792  68.4501 14.97204018194837
INS-1B                  
1 41954U 17008G   20158.45275776  .00001167  00000-0  49927-4 0  9998
2 41954  97.3547 223.0500 0008516 351.3630   8.7459 15.24762014183695
BGUSAT                  
1 41999U 17008BD  20158.46716104  .00001922  00000-0  74220-4 0  9996
2 41999  97.3660 227.1469 0007612   3.1926 356.9361 15.27472103183279
DIDO-2                  
1 42000U 17008BE  20158.21651809  .00000708  00000-0  31700-4 0  9990
2 42000  97.3555 223.3282 0008572  12.0038 348.1402 15.24462323183051
PEASSS                  
1 42015U 17008BV  20158.20228122  .00001035  00000-0  43535-4 0  9996
2 42015  97.3579 224.8917 0006605  19.6001 340.5490 15.25597517183634
AL-FARABI 1             
1 42016U 17008BW  20158.49184529  .00001310  00000-0  53059-4 0  9998
2 42016  97.3608 226.2030 0006396  18.2573 341.8894 15.26434650183851
NAYIF-1 (EO-88)         
1 42017U 17008BX  20158.47086008  .00001357  00000-0  54795-4 0  9999
2 42017  97.3602 226.1931 0006449  17.3885 342.7574 15.26475021183874
UCLSAT                  
1 42765U 17036A   20158.25435766  .00001102  00000-0  48960-4 0  9990
2 42765  97.3014 212.7965 0012965  69.5058 290.7570 15.23508745164874
LITUANICASAT-2          
1 42768U 17036D   20158.10414910  .00001998  00000-0  85010-4 0  9995
2 42768  97.3067 212.6050 0016171  60.3596 299.9250 15.24042508164112
AALTO-1                 
1 42775U 17036L   20158.40629366  .00000717  00000-0  34451-4 0  9990
2 42775  97.2990 210.7933 0015367  62.2232 298.0560 15.21830106163992
URSA MAIOR              
1 42776U 17036M   20158.39692438  .00000782  00000-0  37128-4 0  9995
2 42776  97.3002 211.0639 0015175  62.0422 298.2349 15.22011724164009
COMPASS 2               
1 42777U 17036N   20158.19106221  .00001527  00000-0  65980-4 0  9999
2 42777  97.3059 213.1132 0013775  61.5914 298.6710 15.23900101164088
DIAMOND RED             
1 42783U 17036U   20158.57242031  .00000930  00000-0  42619-4 0  9999
2 42783  97.3014 212.3854 0013665  70.0956 290.1752 15.22821983164090
PEGASUS                 
1 42784U 17036V   20158.40876549  .00001057  00000-0  47526-4 0  9992
2 42784  97.3019 212.6408 0013505  69.6315 290.6371 15.23198744164095
DIAMOND GREEN           
1 42785U 17036W   20158.24267278  .00000943  00000-0  43165-4 0  9996
2 42785  97.3017 212.0999 0013587  71.6919 288.5795 15.22821627164117
DIAMOND BLUE            
1 42786U 17036X   20158.24187386  .00000933  00000-0  42736-4 0  9990
2 42786  97.3016 212.0946 0013432  71.9209 288.3489 15.22821683164113
NUDTSAT                 
1 42787U 17036Y   20158.60646779  .00001531  00000-0  65015-4 0  9997
2 42787  97.3058 214.2028 0013139  60.4184 299.8369 15.24497343164044
SUCHAI                  
1 42788U 17036Z   20158.37131478  .00001280  00000-0  56012-4 0  9995
2 42788  97.3027 213.1823 0013045  68.4602 291.8024 15.23745476164199
SKCUBE                  
1 42789U 17036AA  20158.41624909  .00001181  00000-0  52140-4 0  9995
2 42789  97.3022 213.0821 0012914  68.6338 291.6276 15.23588873164119
VZLUSAT-1               
1 42790U 17036AB  20158.59535693  .00001573  00000-0  66760-4 0  9995
2 42790  97.3046 214.1880 0012386  66.4412 293.8126 15.24487468164191
ROBUSTA-1B              
1 42792U 17036AD  20158.24007481  .00001217  00000-0  53381-4 0  9998
2 42792  97.3024 213.1584 0012521  69.6339 290.6242 15.23775719164117
CICERO 6                
1 42793U 17036AE  20158.41938210  .00000816  00000-0  37432-4 0  9994
2 42793  97.3000 212.7546 0011853  71.5007 288.7517 15.23130320164189
D-SAT                   
1 42794U 17036AF  20158.57247906  .00000303  00000-0  31369-4 0  9991
2 42794  97.4940 191.7671 0127243  41.9288 319.1589 14.91276341161073
CORVUS BC2              
1 42846U 17042X   20158.50983855  .00000121  00000-0  17174-4 0  9995
2 42846  97.5245  42.5610 0008617 322.7140  37.3480 14.92104447157775
CORVUS BC1              
1 42847U 17042Y   20158.43921988  .00000193  00000-0  24195-4 0  9997
2 42847  97.5248  42.6611 0008267 322.4190  37.6451 14.92205622157761
MIRATA                  
1 43015U 17073C   20158.31435447  .00001077  00000-0  87444-4 0  9994
2 43015  97.7199  70.9534 0254898  84.9254 278.0997 14.79628445137578
MAKERSAT 0              
1 43016U 17073D   20158.27237241  .00000730  00000-0  61036-4 0  9996
2 43016  97.7235  71.0958 0257612  86.0971 276.9649 14.79200920137551
DELLINGR (RBLE)         
1 43021U 98067NJ  20157.98028277  .00013541  00000-0  11252-3 0  9996
2 43021  51.6358 338.4538 0001153  35.4597 324.6477 15.70508349145068
AEROCUBE 7B (OCSD B)    
1 43042U 17071F   20158.48996122  .00003061  00000-0  76254-4 0  9994
2 43042  51.6367 120.3555 0004762  14.0231 346.0887 15.43545557140683
AEROCUBE 7C (OCSD C)    
1 43043U 17071G   20158.36366646  .00003235  00000-0  80140-4 0  9996
2 43043  51.6367 121.0271 0005024  17.2336 342.8820 15.43519105140636
CHEFSAT                 
1 43044U 17071H   20158.45109183  .00006694  00000-0  13288-3 0  9998
2 43044  51.6378 106.1292 0004856  24.6314 335.4905 15.48259321140847
ASGARDIA 1              
1 43049U 17071N   20158.48685830  .00002816  00000-0  70838-4 0  9991
2 43049  51.6381 119.6719 0002870  36.7760 323.3422 15.43565730140661
ISARA                   
1 43050U 17071P   20158.42592882  .00005360  00000-0  11176-3 0  9997
2 43050  51.6359 108.8429 0002876  39.6449 320.4748 15.47268832140800
PROPCUBE 2 (FAUNA)      
1 43052U 17071R   20158.28209548  .00002967  00000-0  73070-4 0  9999
2 43052  51.6372 119.0723 0002802  33.8656 326.2509 15.44012173140646
CORVUS BC3              
1 43118U 18004H   20158.45730253  .00000723  00000-0  33383-4 0  9991
2 43118  97.4442 228.8195 0012060  91.5339 268.7280 15.23354457133327
MICROMAS-2A             
1 43131U 18004W   20158.23283108  .00001726  00000-0  71440-4 0  9994
2 43131  97.4489 230.2880 0010936  91.4645 268.7846 15.25259728133381
SPACEBEE-4              
1 43139U 18004AE  20158.47280355  .00002468  00000-0  97197-4 0  9990
2 43139  97.4523 231.6812 0010349  91.8921 268.3502 15.26536321133481
SPACEBEE-3              
1 43140U 18004AF  20158.22711284  .00003085  00000-0  11762-3 0  9994
2 43140  97.4540 232.1041 0010022  91.4828 268.7559 15.27422861133482
SPACEBEE-2              
1 43141U 18004AG  20158.47090943  .00003305  00000-0  12464-3 0  9999
2 43141  97.4553 232.5992 0009997  90.4493 269.7891 15.27726758133530
SPACEBEE-1              
1 43142U 18004AH  20158.50671024  .00003487  00000-0  12999-3 0  9993
2 43142  97.4557 232.8888 0009965  90.1908 270.0474 15.28078484133545
CICERO 7                
1 43143U 18004AJ  20158.43104050  .00001403  00000-0  58554-4 0  9990
2 43143  97.4469 230.6701 0009144  98.3915 261.8360 15.25301874133434
GOMX-4B                 
1 43196U 18015E   20158.38805038  .00000597  00000-0  27328-4 0  9996
2 43196  97.4367 287.0089 0019934 139.9054 220.3659 15.24254660130211
GOMX-4A                 
1 43197U 18015F   20158.55596567  .00000826  00000-0  36382-4 0  9995
2 43197  97.4356 287.2602 0020169 139.9073 350.8995 15.24494864130254
1KUNS-PF                
1 43466U 98067NP  20157.84891228  .00909771  54738-3  60052-3 0  9999
2 43466  51.6204 310.6785 0012427 304.9112  55.0736 16.16355134118673
UBAKUSAT                
1 43467U 98067NQ  20157.93277776  .00028237  00000-0  18965-3 0  9991
2 43467  51.6336 341.0077 0000220 315.3559  44.7423 15.74968937118291
CUBERRT                 
1 43546U 98067NU  20158.01248735  .00011877  00000-0  88403-4 0  9999
2 43546  51.6342 340.0757 0002829  52.4413 307.6842 15.73302678108440
TEMPEST-D               
1 43547U 98067NV  20158.28261521  .00004996  00000-0  60996-4 0  9998
2 43547  51.6375   8.2706 0004818  22.9285 337.1924 15.62456626107778
RAINCUBE                
1 43548U 98067NW  20158.53538041  .00025493  00000-0  18048-3 0  9996
2 43548  51.6340 345.7848 0003198  58.3808 301.7502 15.73803065108541
